NORAD_CAT_ID,OBJECT_NAME,OBJECT_TYPE,EPOCH,MEAN_MOTION,ECCENTRICITY,INCLINATION,RA_OF_ASC_NODE,ARG_OF_PERICENTER,MEAN_ANOMALY,BSTAR,MEAN_MOTION_DOT,MEAN_MOTION_DDOT,TLE_LINE0,TLE_LINE1,TLE_LINE2,SEMIMAJOR_AXIS,PERIOD,APOGEE,PERIGEE,DECAYED
53557.0,STARLINK-4502,PAYLOAD,2022-10-25 22:00:01,15.1303937,0.0001215,53.2179,189.285,77.3995,239.0699,-0.0667519999999999,-0.0110273,0.0,0 STARLINK-4502,1 53557U 22101AG  22298.91668981 -.01102730  00000-0 -66752-1 0  9995,2 53557  53.2179 189.2850 0001215  77.3995 239.0699 15.13039370  1300,6905.074000000001,95.173,527.778,526.1,0.0
53557.0,STARLINK-4502,PAYLOAD,2022-10-26 14:00:01,15.11497746,0.0001248,53.2174,186.2808,69.3269,278.4837,-0.067499,-0.01070411,0.0,0 STARLINK-4502,1 53557U 22101AG  22299.58334491 -.01070411  00000-0 -67499-1 0  9994,2 53557  53.2174 186.2808 0001248  69.3269 278.4837 15.11497746  1300,6909.769,95.27,532.496,530.771,0.0
53557.0,STARLINK-4502,PAYLOAD,2022-10-26 22:00:00,15.10740805,0.0001271,53.2176,184.7828,67.4477,294.6889,-0.069188,-0.01074009,0.0,0 STARLINK-4502,1 53557U 22101AG  22299.91667824 -.01074009  00000-0 -69188-1 0  9994,2 53557  53.2176 184.7828 0001271  67.4477 294.6889 15.10740805  1306,6912.076,95.317,534.82,533.063,0.0
53557.0,STARLINK-4502,PAYLOAD,2022-10-27 14:00:01,15.09142901,0.0001205,53.2176,181.7843,73.993,314.1329,-0.026942,-0.00408741,0.0,0 STARLINK-4502,1 53557U 22101AG  22300.58335648 -.00408741  00000-0 -26942-1 0  9990,2 53557  53.2176 181.7843 0001205  73.9930 314.1329 15.09142901 10750,6916.955,95.418,539.653,537.986,0.0
53557.0,STARLINK-4502,PAYLOAD,2022-10-27 22:00:00,15.08837409,0.0001495,53.2175,180.2911,64.7036,335.1330000000001,-5.9372e-05,-1.233e-05,0.0,0 STARLINK-4502,1 53557U 22101AG  22300.91667824 -.00001233  00000-0 -59372-4 0  9992,2 53557  53.2175 180.2911 0001495  64.7036 335.1330 15.08837409  1304,6917.888000000001,95.438,540.788,538.719,0.0
53557.0,STARLINK-4502,PAYLOAD,2022-10-28 14:00:01,15.08861552,0.0001506,53.217,177.2867,80.5707,342.5496,-0.0033673,-0.00053512,0.0,0 STARLINK-4502,1 53557U 22101AG  22301.58335648 -.00053512  00000-0 -33673-2 0  9993,2 53557  53.2170 177.2867 0001506  80.5707 342.5496 15.08861552  1300,6917.815,95.436,540.721,538.638,0.0
53557.0,STARLINK-4502,PAYLOAD,2022-10-28 22:00:01,15.08805476,0.0001422,53.2168,175.792,72.5226,2.2052,-0.0029044,-0.00046172,0.0,0 STARLINK-4502,1 53557U 22101AG  22301.91668981 -.00046172  00000-0 -29044-2 0  9990,2 53557  53.2168 175.7920 0001422  72.5226   2.2052 15.08805476  1305,6917.986,95.44,540.835,538.867,0.0
53557.0,STARLINK-4502,PAYLOAD,2022-10-29 08:00:01,15.08805383,0.0001383,53.2166,173.9209,73.3464,105.7286,0.00084173,0.00013121,0.0,0 STARLINK-4502,1 53557U 22101AG  22302.33334491  .00013121  00000-0  84173-3 0  9994,2 53557  53.2166 173.9209 0001383  73.3464 105.7286 15.08805383 11016,6917.986,95.44,540.808,538.894,0.0
53557.0,STARLINK-4502,PAYLOAD,2022-10-29 12:00:00,15.08794893,0.0001379,53.2165,173.1717,78.8446,286.0133,0.0035256999999999,0.00056202,0.0,0 STARLINK-4502,1 53557U 22101AG  22302.50001157  .00056202  00000-0  35257-2 0  9998,2 53557  53.2165 173.1717 0001379  78.8446 286.0133 15.08794893  1304,6918.018,95.44,540.837,538.929,0.0
53557.0,STARLINK-4502,PAYLOAD,2022-10-29 22:00:01,15.08847678,0.0001496999999999,53.2167,171.3031,71.3822,38.0238,2.4285e-05,9.9e-07,0.0,0 STARLINK-4502,1 53557U 22101AG  22302.91668981  .00000099  00000-0  24285-4 0  9991,2 53557  53.2167 171.3031 0001497  71.3822  38.0238 15.08847678  1303,6917.857,95.437,540.758,538.686,0.0
53557.0,STARLINK-4502,PAYLOAD,2022-10-30 00:00:00,15.0883625,0.0001501999999999,53.2168,170.9294,69.096,133.1511,0.0018755,0.00029684,0.0,0 STARLINK-4502,1 53557U 22101AG  22303.00001157  .00029684  00000-0  18755-2 0  9992,2 53557  53.2168 170.9294 0001502  69.0960 133.1511 15.08836250 11119,6917.892,95.438,540.7959999999998,538.7180000000002,0.0
53557.0,STARLINK-4502,PAYLOAD,2022-10-30 14:00:01,15.08828394,0.0001330999999999,53.2169,168.3086,76.7882,55.7678,0.002448,0.00038875,0.0,0 STARLINK-4502,1 53557U 22101AG  22303.58334491  .00038875  00000-0  24480-2 0  9999,2 53557  53.2169 168.3086 0001331  76.7882  55.7678 15.08828394  1301,6917.916,95.438,540.702,538.86,0.0
53557.0,STARLINK-4502,PAYLOAD,2022-10-30 22:00:01,15.08847424,0.000138,53.217,166.81400000000005,67.1424,77.0757,-0.0020012,-0.00032002,0.0,0 STARLINK-4502,1 53557U 22101AG  22303.91668981 -.00032002  00000-0 -20012-2 0  9995,2 53557  53.2170 166.8140 0001380  67.1424  77.0757 15.08847424  1307,6917.858,95.437,540.677,538.768,0.0
53557.0,STARLINK-4502,PAYLOAD,2022-10-31 14:00:01,15.08840219,0.000126,53.2176,163.8196,73.7635,93.5696,0.0010214,0.00016005,0.0,0 STARLINK-4502,1 53557U 22101AG  22304.58334491  .00016005  00000-0  10214-2 0  9991,2 53557  53.2176 163.8196 0001260  73.7635  93.5696 15.08840219  1305,6917.88,95.438,540.616,538.873,0.0
53557.0,STARLINK-4502,PAYLOAD,2022-10-31 22:00:01,15.08832826,0.0001306,53.2177,162.325,62.5776,116.4271,-0.00071538,-0.00011653,0.0,0 STARLINK-4502,1 53557U 22101AG  22304.91668981 -.00011653  00000-0 -71538-3 0  9995,2 53557  53.2177 162.3250 0001306  62.5776 116.4271 15.08832826 11405,6917.901999999999,95.438,540.6709999999998,538.864,0.0
53557.0,STARLINK-4502,PAYLOAD,2022-11-01 14:00:01,15.08837606,0.0001216,53.2184,159.3308,71.8651,130.2524,0.0019083,0.00030211,0.0,0 STARLINK-4502,1 53557U 22101AG  22305.58334491  .00030211  00000-0  19083-2 0  9990,2 53557  53.2184 159.3308 0001216  71.8651 130.2524 15.08837606 11505,6917.888000000001,95.438,540.594,538.911,0.0
53557.0,STARLINK-4502,PAYLOAD,2022-11-01 22:00:00,15.08830111,0.0001237,53.2184,157.8362,58.7504,154.9782,-0.00027379,-4.641e-05,0.0,0 STARLINK-4502,1 53557U 22101AG  22305.91667824 -.00004641  00000-0 -27379-3 0  9994,2 53557  53.2184 157.8362 0001237  58.7504 154.9782 15.08830111  1302,6917.911,95.438,540.631,538.92,0.0
53557.0,STARLINK-4502,PAYLOAD,2022-11-02 14:00:01,15.08839215,0.0001075999999999,53.2182,154.8441,72.5106,164.387,0.0017230999999999,0.00027241,0.0,0 STARLINK-4502,1 53557U 22101AG  22306.58334491  .00027241  00000-0  17231-2 0  9993,2 53557  53.2182 154.8441 0001076  72.5106 164.3870 15.08839215  1305,6917.8830000000025,95.438,540.492,539.003,0.0
53557.0,STARLINK-4502,PAYLOAD,2022-11-02 19:18:48,15.088413699999998,0.0001726,53.2173,153.8499,24.9611,335.1464,-3.5671e-05,-8.56e-06,0.0,0 STARLINK-4502,1 53557U 22101AG  22306.80472438 -.00000856  00000-0 -35671-4 0  9997,2 53557  53.2173 153.8499 0001726  24.9611 335.1464 15.08841370 12349,6917.876,95.437,540.935,538.547,0.0
53557.0,STARLINK-4502,PAYLOAD,2022-11-03 01:40:20,15.08835297,0.0001805,53.218,152.6604,55.3722,304.744,-0.00013938,-2.505e-05,0.0,0 STARLINK-4502,1 53557U 22101AG  22307.06968737 -.00002505  00000-0 -13938-3 0  9992,2 53557  53.2180 152.6604 0001805  55.3722 304.7440 15.08835297 11730,6917.895,95.438,541.008,538.511,0.0
53557.0,STARLINK-4502,PAYLOAD,2022-11-03 06:26:30,15.08835999,0.0001661,53.2179,151.7676,57.9693,302.1461,-0.00018444,-3.222e-05,0.0,0 STARLINK-4502,1 53557U 22101AG  22307.26840641 -.00003222  00000-0 -18444-3 0  9991,2 53557  53.2179 151.7676 0001661  57.9693 302.1461 15.08835999 12412,6917.893,95.438,540.9069999999998,538.609,0.0
53557.0,STARLINK-4502,PAYLOAD,2022-11-03 19:09:35,15.08843996,0.0001541,53.2178,149.3888,58.1901,301.9241,-1.6744e-05,-5.55e-06,0.0,0 STARLINK-4502,1 53557U 22101AG  22307.79832333 -.00000555  00000-0 -16744-4 0  9996,2 53557  53.2178 149.3888 0001541  58.1901 301.9241 15.08843996 11846,6917.868,95.437,540.799,538.6669999999998,0.0
53557.0,STARLINK-4502,PAYLOAD,2022-11-03 20:44:57,15.08851277,0.0001611,53.2181,149.0914,61.9792,298.1363,0.00010449,1.376e-05,0.0,0 STARLINK-4502,1 53557U 22101AG  22307.86455982  .00001376  00000-0  10449-3 0  9990,2 53557  53.2181 149.0914 0001611  61.9792 298.1363 15.08851277 12502,6917.846,95.437,540.825,538.596,0.0
53557.0,STARLINK-4502,PAYLOAD,2022-11-04 01:31:07,15.08858554,0.0001685,53.2181,148.1995,58.7088,301.4069,0.00073927,0.00011503,0.0,0 STARLINK-4502,1 53557U 22101AG  22308.06327878  .00011503  00000-0  73927-3 0  9998,2 53557  53.2181 148.1995 0001685  58.7088 301.4069 15.08858554 11880,6917.824000000001,95.436,540.854,538.523,0.0
53557.0,STARLINK-4502,PAYLOAD,2022-11-04 06:17:17,15.08846006,0.0001929,53.2179,147.3077,59.0217,301.0964,0.00050076,7.692e-05,0.0,0 STARLINK-4502,1 53557U 22101AG  22308.26200263  .00007692  00000-0  50076-3 0  9992,2 53557  53.2179 147.3077 0001929  59.0217 301.0964 15.08846006 11911,6917.861999999999,95.437,541.061,538.393,0.0
53557.0,STARLINK-4502,PAYLOAD,2022-11-04 12:38:49,15.08849345,0.0002237,53.2167,146.1183,57.7078,302.4131,0.00049314,7.571e-05,0.0,0 STARLINK-4502,1 53557U 22101AG  22308.52696262  .00007571  00000-0  49314-3 0  9998,2 53557  53.2167 146.1183 0002237  57.7078 302.4131 15.08849345 12603,6917.852,95.437,541.264,538.169,0.0
53557.0,STARLINK-4502,PAYLOAD,2022-11-04 19:00:22,15.08840314,0.0001745,53.2183,144.9296,57.4149,302.7011,0.00020171,2.924e-05,0.0,0 STARLINK-4502,1 53557U 22101AG  22308.79192337  .00002924  00000-0  20171-3 0  9998,2 53557  53.2183 144.9296 0001745  57.4149 302.7011 15.08840314 11999,6917.879,95.438,540.952,538.5369999999998,0.0
53557.0,STARLINK-4502,PAYLOAD,2022-11-05 01:21:55,15.08826927,0.0001932,53.2179,143.7386,61.2117,298.9069,-0.00011465,-2.112e-05,0.0,0 STARLINK-4502,1 53557U 22101AG  22309.05688936 -.00002112  00000-0 -11465-3 0  9990,2 53557  53.2179 143.7386 0001932  61.2117 298.9069 15.08826927 12036,6917.92,95.438,541.122,538.4490000000002,0.0
53557.0,STARLINK-4502,PAYLOAD,2022-11-05 06:08:04,15.08830617,0.0001679,53.2177,142.8468,59.6928,300.423,-1.4287e-05,-5.15e-06,0.0,0 STARLINK-4502,1 53557U 22101AG  22309.25560950 -.00000515  00000-0 -14287-4 0  9998,2 53557  53.2177 142.8468 0001679  59.6928 300.4230 15.08830617 12719,6917.909000000002,95.438,540.936,538.613,0.0
